0 FENGYUN 1C DEB
1 30549U 99025AKP 13282.85846249  .00002009  00000-0  12634-2 0    44
2 30549 098.4818 039.6395 0343783 248.6481 238.1417 13.80031938336719
0 FENGYUN 1C DEB
1 30549U 99025AKP 13285.83809449  .00002295  00000-0  14380-2 0    54
2 30549 098.4826 042.3187 0343989 240.5558 281.3331 13.80044428337121
0 FENGYUN 1C DEB
1 30549U 99025AKP 13288.57359036  .00003473  00000-0  21623-2 0    68
2 30549 098.4822 044.7777 0344025 233.1270 191.7754 13.80059111337497
0 FENGYUN 1C DEB
1 30549U 99025AKP 13291.32025066  .00003451  00000-0  21469-2 0    73
2 30549 098.4828 047.2479 0344154 225.6727 157.8415 13.80078047337874
0 FENGYUN 1C DEB
1 30549U 99025AKP 13293.81211005  .00003961  00000-0  24593-2 0    87
2 30549 098.4828 049.4888 0344247 218.9116 298.1613 13.80093429338222
0 FENGYUN 1C DEB
1 30549U 99025AKP 13295.83726817  .00004719  00000-0  29231-2 0    90
2 30549 098.4826 051.3104 0344292 213.4213 279.8686 13.80107979338504
